GOES 14                 
1 35491U 09033A   26185.96109383 -.00000332  00000+0  00000+0 0  9995
2 35491   1.7327  82.8376 0002142  30.2434 287.2365  1.00104012  6764
FM-5                    
1 35493U 09034A   26183.77931601 -.00000189  00000+0  00000+0 0  9991
2 35493   0.0343 275.0250 0000963  71.7322 128.4433  1.00271535 46804
TERRESTAR-1             
1 35496U 09035A   26185.62800775 -.00000046  00000+0  00000+0 0  9990
2 35496   5.1878  48.7862 0002634  47.2368 301.6827  1.00272514 62308
COSMOS 2451             
1 35498U 09036A   26185.91095318  .00000046  00000+0  27050-3 0  9991
2 35498  82.4883  81.3650 0006526 162.9893 197.1406 12.40870723769840
COSMOS 2453             
1 35500U 09036C   26185.95709066  .00000043  00000+0  24149-3 0  9994
2 35500  82.4884  76.8650 0007506 120.6926 239.4894 12.41519823770183
DEIMOS-1                
1 35681U 09041A   26185.95694139  .00000805  00000+0  12603-3 0  9992
2 35681  97.7425 342.4155 0002521 106.6002 253.5485 14.75257236909505
DUBAISAT-1              
1 35682U 09041B   26185.65736901  .00001331  00000+0  20461-3 0  9990
2 35682  98.0075 318.7258 0010747  22.2616 337.9058 14.75155703907679
UK-DMC 2                
1 35683U 09041C   26185.91876660  .00000486  00000+0  77603-4 0  9998
2 35683  97.8862 320.4538 0001296  98.6527 261.4830 14.76081487909184
APRIZESAT 4             
1 35684U 09041D   26185.92402970  .00001013  00000+0  12723-3 0  9997
2 35684  98.1407 261.5978 0041912 263.8399  95.8039 14.83904708913991
NANOSAT 1B              
1 35685U 09041E   26185.78090206  .00002536  00000+0  24309-3 0  9991
2 35685  98.1189 305.0258 0050545 106.2622 254.4165 14.93141985917049
APRIZESAT 3             
1 35686U 09041F   26185.68673844  .00001745  00000+0  15458-3 0  9992
2 35686  98.2081 339.7511 0061704  10.3583 349.8892 14.96290082918995
ASIASAT 5               
1 35696U 09042A   26185.95502713 -.00000294  00000+0  00000+0 0  9992
2 35696   0.0352  75.6513 0001581   8.4587 283.1678  1.00270880 61889
NAVSTAR 64 (USA 206)    
1 35752U 09043A   26185.31102860 -.00000059  00000+0  00000+0 0  9994
2 35752  56.2210  26.7798 0053802  83.9260  86.3327  2.00553427123705
JCSAT-12 (JCSAT-RA)     
1 35755U 09044A   26185.96126716 -.00000315  00000+0  00000+0 0  9990
2 35755   0.0241 299.7799 0000899 250.0972 211.1798  1.00270639 61786
OPTUS D3                
1 35756U 09044B   26183.75608924 -.00000134  00000+0  00000+0 0  9991
2 35756   0.8834 268.4529 0003519 194.0205 246.6503  1.00273454 61724
NIMIQ 5                 
1 35873U 09050A   26183.61678527 -.00000246  00000+0  00000+0 0  9993
2 35873   0.0248 285.3738 0002960 168.5925 336.0220  1.00270300 61490
OCEANSAT-2              
1 35931U 09051A   26185.92807370 -.00000206  00000+0 -11541-3 0  9998
2 35931  98.2318 171.0086 0016642 183.3512 176.7546 13.99658415881812
SWISSCUBE               
1 35932U 09051B   26185.47808840  .00001528  00000+0  31098-3 0  9997
2 35932  98.4021  93.6669 0007217 148.5860 211.5774 14.62517748891680
BEESAT-1                
1 35933U 09051C   26185.01738541  .00001005  00000+0  21142-3 0  9997
2 35933  98.3948  92.7981 0005397 160.6033 199.5374 14.61748287891649
ITUPSAT1                
1 35935U 09051E   26185.70814032  .00001186  00000+0  25471-3 0  9994
2 35935  98.4031  92.6727 0007316 174.2685 185.8600 14.60469280891292
AMAZONAS 2              
1 35942U 09054A   26183.56829301 -.00000249  00000+0  00000+0 0  9999
2 35942   1.8530  82.8651 0003523  23.0075 307.2888  1.00268849 61339
COMSATBW-1              
1 35943U 09054B   26185.89820840  .00000037  00000+0  00000+0 0  9991
2 35943   0.0715 119.7412 0003020 348.3215 201.2183  1.00272902 61484
WORLDVIEW-2 (WV-2)      
1 35946U 09055A   26185.90821522  .00000183  00000+0  75071-4 0  9992
2 35946  98.4760 259.1160 0004819 155.6240 204.5176 14.37905031878193
DMSP 5D-3 F18 (USA 210) 
1 35951U 09057A   26185.89073443  .00000322  00000+0  18995-3 0  9995
2 35951  98.9047 166.6220 0010605 195.0087 165.0773 14.14907247862090
NSS-12                  
1 36032U 09058A   26185.95697044  .00000084  00000+0  00000+0 0  9992
2 36032   0.0585 277.5310 0004605 153.2141 253.7231  1.00272689 61095
THOR 6                  
1 36033U 09058B   26185.86367056  .00000003  00000+0  00000+0 0  9991
2 36033   0.0143 100.3687 0002135  25.9254 106.6462  1.00271427 61183
SMOS                    
1 36036U 09059A   26185.28539676  .00000304  00000+0  11088-3 0  9996
2 36036  98.4427  12.3699 0001301  86.9741 273.1596 14.39782165875913
PROBA-2                 
1 36037U 09059B   26185.77821049  .00000309  00000+0  82401-4 0  9992
2 36037  98.2456   8.8874 0012329 222.3373 137.6873 14.54870834884086
POISK                   
1 36086U 09060A   26185.79857271  .00009725  00000+0  18504-3 0  9999
2 36086  51.6303 212.9192 0006761 256.1012 103.9224 15.48894567591469
SJ-11-01                
1 36088U 09061A   26185.97085235  .00000261  00000+0  58951-4 0  9992
2 36088  98.0062 166.4531 0010305 334.5461 110.0236 14.63702597887092
COSMOS 2455             
1 36095U 09063A   26185.75664272 -.00000031  00000+0  31424-4 0  9994
2 36095  67.1457 210.1709 0003463 276.5651  83.5039 13.97052363847582
